{"type": "FeatureCollection", "name": "rute", "crs": {"type": "name", "properties": {"name": "urn:ogc:def:crs:OGC:1.3:CRS84"}}, "features": [{"type": "Feature", "properties": {"trip_id": 1, "nama": "Trip 1", "kendaraan": "Bus pariwisata", "kode_kendaraan": "K-09", "trayek": "Cilegon – Jakarta", "arah": "Cilegon ke Jakarta", "hari": "Senin", "tanggal": "03-03-2025", "jam_mulai": "05:20", "jam_selesai": "09:31", "jam_berangkat": 5, "durasi_menit": 251.0, "kecepatan_rata": 30.3, "kecepatan_maks": 66.8, "jumlah_titik": 503, "jarak_km": 126.71, "liter_total": 37.99, "liter_jalan": 36.79, "liter_idle": 1.2, "menit_idle": 36.0, "liter_per_100km": 29.98, "km_per_liter": 3.34, "biaya_rp": 493830, "liter_boros": 4.64, "biaya_boros_rp": 60360, "jenis_bbm": "Dexlite", "harga_per_liter": 13000, "malam": false}, "geometry": {"type": "LineString", "coordinates": [[106.022508, -5.9987], [106.02448, -5.99576], [106.027897, -5.994449], [106.030344, -5.991053], [106.032418, -5.986705], [106.032351, -5.983277], [106.03956, -5.988771], [106.042889, -5.990028], [106.047896, -5.98981], [106.051685, -5.991755], [106.062565, -6.001922], [106.068537, -6.006865], [106.074988, -6.010563], [106.082595, -6.014209], [106.086318, -6.016572], [106.089581, -6.019167], [106.096186, -6.025968], [106.103563, -6.037547], [106.106546, -6.041183], [106.109123, -6.043834], [106.115669, -6.049714], [106.117988, -6.052493], [106.12205, -6.058893], [106.13355, -6.080609], [106.13619, -6.08439], [106.139683, -6.086415], [106.159815, -6.093399], [106.164303, -6.095274], [106.168535, -6.097894], [106.171418, -6.100166], [106.174764, -6.10338], [106.186844, -6.116161], [106.188935, -6.119312], [106.190768, -6.123503], [106.193316, -6.127371], [106.196804, -6.129264], [106.200764, -6.130766], [106.220902, -6.137818], [106.225193, -6.13819], [106.259298, -6.138828], [106.265585, -6.140183], [106.274998, -6.142995], [106.278216, -6.143446], [106.28142, -6.143268], [106.284568, -6.142713], [106.287055, -6.140366], [106.290002, -6.14001], [106.292527, -6.139196], [106.298285, -6.136082], [106.301218, -6.137272], [106.303944, -6.138651], [106.305914, -6.141492], [106.309273, -6.14776], [106.313204, -6.152785], [106.316316, -6.154315], [106.318615, -6.156371], [106.320105, -6.15864], [106.323037, -6.160732], [106.325715, -6.162023], [106.328131, -6.163774], [106.33324, -6.168626], [106.338453, -6.176853], [106.33968, -6.179749], [106.341586, -6.185657], [106.344483, -6.192237], [106.347485, -6.197211], [106.349609, -6.202973], [106.351315, -6.205574], [106.353654, -6.207165], [106.356521, -6.207757], [106.359801, -6.207756], [106.365322, -6.20527], [106.371194, -6.20642], [106.374408, -6.206572], [106.37668, -6.208821], [106.379723, -6.209748], [106.382258, -6.208995], [106.38444, -6.207428], [106.38722, -6.208721], [106.394747, -6.213659], [106.397407, -6.214017], [106.400414, -6.215133], [106.403267, -6.21569], [106.406425, -6.215854], [106.418374, -6.219243], [106.420714, -6.22169], [106.422389, -6.223911], [106.424787, -6.226116], [106.431106, -6.228792], [106.433848, -6.227651], [106.436042, -6.225378], [106.441585, -6.21775], [106.446106, -6.212654], [106.45802, -6.196745], [106.459431, -6.198154], [106.458961, -6.201844], [106.460338, -6.203667], [106.462075, -6.20447], [106.465666, -6.205555], [106.469731, -6.20598], [106.473563, -6.205478], [106.477943, -6.203827], [106.483673, -6.201119], [106.485437, -6.200577], [106.487517, -6.200094], [106.491715, -6.199995], [106.514698, -6.204816], [106.520663, -6.20527], [106.530912, -6.205595], [106.543306, -6.207785], [106.545157, -6.208503], [106.547199, -6.209723], [106.552427, -6.214099], [106.555967, -6.216511], [106.559907, -6.218477], [106.56607, -6.220401], [106.572725, -6.221372], [106.611553, -6.224921], [106.615708, -6.224969], [106.619578, -6.224591], [106.666773, -6.217764], [106.693532, -6.210322], [106.695522, -6.209504], [106.698607, -6.207722], [106.717488, -6.193046], [106.720544, -6.19148], [106.722546, -6.190868], [106.724149, -6.190609], [106.727889, -6.190825], [106.729712, -6.189981], [106.730342, -6.188045], [106.728258, -6.177981], [106.72721, -6.166717], [106.72697, -6.159079], [106.727277, -6.151859], [106.727464, -6.149824], [106.72969, -6.138844], [106.729945, -6.132577], [106.729746, -6.126776], [106.729917, -6.124685], [106.730683, -6.122652], [106.732688, -6.118918], [106.732772, -6.11685], [106.734216, -6.115808], [106.736954, -6.118537], [106.744547, -6.121915], [106.74651, -6.122176], [106.757931, -6.122596], [106.766681, -6.121962], [106.76884, -6.121582], [106.773946, -6.121672], [106.775587, -6.122907], [106.777649, -6.126237], [106.779974, -6.128691], [106.7814, -6.129822], [106.784972, -6.131366], [106.792834, -6.132361], [106.802529, -6.13194], [106.813651, -6.129585], [106.815316, -6.129779], [106.817679, -6.131026], [106.820338, -6.131737], [106.827445, -6.130513], [106.832088, -6.130102], [106.838739, -6.128914], [106.848876, -6.126449], [106.853522, -6.124974], [106.85977, -6.122365], [106.861896, -6.122191], [106.883403, -6.12659], [106.885783, -6.127523], [106.891932, -6.131075], [106.893449, -6.129906], [106.893092, -6.118477], [106.893323, -6.116982], [106.893887, -6.122917]]}}]}