{"type": "FeatureCollection", "name": "titik_ujung", "crs": {"type": "name", "properties": {"name": "urn:ogc:def:crs:OGC:1.3:CRS84"}}, "features": [{"type": "Feature", "properties": {"trip_id": 1, "jenis": "Titik Awal", "hari": "Senin", "waktu": "03-03-2025 05:20", "jarak_km": 126.71, "liter_total": 37.99, "biaya_rp": 493830}, "geometry": {"type": "Point", "coordinates": [106.022508, -5.9987]}}, {"type": "Feature", "properties": {"trip_id": 1, "jenis": "Titik Akhir", "hari": "Senin", "waktu": "03-03-2025 09:31", "jarak_km": 126.71, "liter_total": 37.99, "biaya_rp": 493830}, "geometry": {"type": "Point", "coordinates": [106.893887, -6.122917]}}]}